[{"OBJECT_NAME":"METOP-B","OBJECT_ID":"2012-049A","EPOCH":"2026-03-04T03:58:37.498656","MEAN_MOTION":14.21442583,"ECCENTRICITY":0.0001214,"INCLINATION":98.6653,"RA_OF_ASC_NODE":116.6935,"ARG_OF_PERICENTER":296.6286,"MEAN_ANOMALY":63.4767,"EPHEMERIS_TYPE":0,"CLASSIFICATION_TYPE":"U","NORAD_CAT_ID":38771,"ELEMENT_SET_NO":999,"REV_AT_EPOCH":69834,"BSTAR":9.2663e-5,"MEAN_MOTION_DOT":1.59e-6,"MEAN_MOTION_DDOT":0},{"OBJECT_NAME":"SARAL","OBJECT_ID":"2013-009A","EPOCH":"2026-03-04T03:42:04.576896","MEAN_MOTION":14.3282633,"ECCENTRICITY":0.0001158,"INCLINATION":98.5552,"RA_OF_ASC_NODE":251.0396,"ARG_OF_PERICENTER":199.3598,"MEAN_ANOMALY":160.7542,"EPHEMERIS_TYPE":0,"CLASSIFICATION_TYPE":"U","NORAD_CAT_ID":39086,"ELEMENT_SET_NO":999,"REV_AT_EPOCH":68056,"BSTAR":8.4479e-5,"MEAN_MOTION_DOT":1.87e-6,"MEAN_MOTION_DDOT":0},{"OBJECT_NAME":"METOP-C","OBJECT_ID":"2018-087A","EPOCH":"2026-03-04T02:52:40.035648","MEAN_MOTION":14.21494934,"ECCENTRICITY":0.0002168,"INCLINATION":98.6776,"RA_OF_ASC_NODE":124.5872,"ARG_OF_PERICENTER":107.6389,"MEAN_ANOMALY":252.5026,"EPHEMERIS_TYPE":0,"CLASSIFICATION_TYPE":"U","NORAD_CAT_ID":43689,"ELEMENT_SET_NO":999,"REV_AT_EPOCH":37990,"BSTAR":0.00010011,"MEAN_MOTION_DOT":1.76e-6,"MEAN_MOTION_DDOT":0},{"OBJECT_NAME":"OTB-3-GAZELLE","OBJECT_ID":"2022-127A","EPOCH":"2026-03-03T20:17:16.066176","MEAN_MOTION":14.42632699,"ECCENTRICITY":0.0013852,"INCLINATION":98.3901,"RA_OF_ASC_NODE":56.1811,"ARG_OF_PERICENTER":142.21,"MEAN_ANOMALY":218.0065,"EPHEMERIS_TYPE":0,"CLASSIFICATION_TYPE":"U","NORAD_CAT_ID":54023,"ELEMENT_SET_NO":999,"REV_AT_EPOCH":17917,"BSTAR":4.4958e-5,"MEAN_MOTION_DOT":1.06e-6,"MEAN_MOTION_DDOT":0},{"OBJECT_NAME":"EOS-6 (OCEANSAT-3)","OBJECT_ID":"2022-158A","EPOCH":"2026-03-04T04:40:03.344160","MEAN_MOTION":14.46999832,"ECCENTRICITY":2.3e-5,"INCLINATION":98.349,"RA_OF_ASC_NODE":162.8186,"ARG_OF_PERICENTER":32.2916,"MEAN_ANOMALY":327.8291,"EPHEMERIS_TYPE":0,"CLASSIFICATION_TYPE":"U","NORAD_CAT_ID":54361,"ELEMENT_SET_NO":999,"REV_AT_EPOCH":17265,"BSTAR":0.00015066,"MEAN_MOTION_DOT":5.04e-6,"MEAN_MOTION_DDOT":0},{"OBJECT_NAME":"KINEIS-1B","OBJECT_ID":"2024-114A","EPOCH":"2026-03-04T03:51:16.449984","MEAN_MOTION":14.80399959,"ECCENTRICITY":0.0003855,"INCLINATION":97.9928,"RA_OF_ASC_NODE":87.8167,"ARG_OF_PERICENTER":84.4159,"MEAN_ANOMALY":275.7493,"EPHEMERIS_TYPE":0,"CLASSIFICATION_TYPE":"U","NORAD_CAT_ID":60079,"ELEMENT_SET_NO":999,"REV_AT_EPOCH":9186,"BSTAR":0.0002283,"MEAN_MOTION_DOT":1.691e-5,"MEAN_MOTION_DDOT":0},{"OBJECT_NAME":"KINEIS-1C","OBJECT_ID":"2024-114C","EPOCH":"2026-03-04T04:39:47.962368","MEAN_MOTION":14.80391984,"ECCENTRICITY":0.0002016,"INCLINATION":97.9949,"RA_OF_ASC_NODE":87.6745,"ARG_OF_PERICENTER":124.506,"MEAN_ANOMALY":235.6342,"EPHEMERIS_TYPE":0,"CLASSIFICATION_TYPE":"U","NORAD_CAT_ID":60081,"ELEMENT_SET_NO":999,"REV_AT_EPOCH":9184,"BSTAR":0.00021835,"MEAN_MOTION_DOT":1.614e-5,"MEAN_MOTION_DDOT":0},{"OBJECT_NAME":"KINEIS-1D","OBJECT_ID":"2024-114D","EPOCH":"2026-03-04T04:23:38.062752","MEAN_MOTION":14.76102258,"ECCENTRICITY":0.0002208,"INCLINATION":97.9972,"RA_OF_ASC_NODE":84.434,"ARG_OF_PERICENTER":132.7797,"MEAN_ANOMALY":227.3598,"EPHEMERIS_TYPE":0,"CLASSIFICATION_TYPE":"U","NORAD_CAT_ID":60082,"ELEMENT_SET_NO":999,"REV_AT_EPOCH":9163,"BSTAR":0.00017358,"MEAN_MOTION_DOT":1.147e-5,"MEAN_MOTION_DDOT":0},{"OBJECT_NAME":"KINEIS-1E","OBJECT_ID":"2024-114E","EPOCH":"2026-03-04T05:04:13.809216","MEAN_MOTION":14.8040994,"ECCENTRICITY":0.0002477,"INCLINATION":97.9934,"RA_OF_ASC_NODE":87.7729,"ARG_OF_PERICENTER":93.8404,"MEAN_ANOMALY":266.3091,"EPHEMERIS_TYPE":0,"CLASSIFICATION_TYPE":"U","NORAD_CAT_ID":60083,"ELEMENT_SET_NO":999,"REV_AT_EPOCH":9185,"BSTAR":0.00021292,"MEAN_MOTION_DOT":1.574e-5,"MEAN_MOTION_DDOT":0},{"OBJECT_NAME":"KINEIS-1A","OBJECT_ID":"2024-114F","EPOCH":"2026-03-04T04:15:37.338336","MEAN_MOTION":14.80425218,"ECCENTRICITY":0.0004769,"INCLINATION":97.9941,"RA_OF_ASC_NODE":87.8616,"ARG_OF_PERICENTER":104.7856,"MEAN_ANOMALY":255.3885,"EPHEMERIS_TYPE":0,"CLASSIFICATION_TYPE":"U","NORAD_CAT_ID":60084,"ELEMENT_SET_NO":999,"REV_AT_EPOCH":9185,"BSTAR":0.00018346,"MEAN_MOTION_DOT":1.349e-5,"MEAN_MOTION_DDOT":0},{"OBJECT_NAME":"KINEIS-3C","OBJECT_ID":"2024-172A","EPOCH":"2026-03-04T04:59:34.054656","MEAN_MOTION":14.72284255,"ECCENTRICITY":0.0003506,"INCLINATION":98.0303,"RA_OF_ASC_NODE":154.2759,"ARG_OF_PERICENTER":111.4414,"MEAN_ANOMALY":248.7168,"EPHEMERIS_TYPE":0,"CLASSIFICATION_TYPE":"U","NORAD_CAT_ID":61220,"ELEMENT_SET_NO":999,"REV_AT_EPOCH":7762,"BSTAR":0.00055,"MEAN_MOTION_DOT":3.426e-5,"MEAN_MOTION_DDOT":0},{"OBJECT_NAME":"KINEIS-3D","OBJECT_ID":"2024-172B","EPOCH":"2026-03-04T04:50:00.540096","MEAN_MOTION":14.72287856,"ECCENTRICITY":0.000254,"INCLINATION":98.0304,"RA_OF_ASC_NODE":154.2807,"ARG_OF_PERICENTER":115.8358,"MEAN_ANOMALY":244.3112,"EPHEMERIS_TYPE":0,"CLASSIFICATION_TYPE":"U","NORAD_CAT_ID":61221,"ELEMENT_SET_NO":999,"REV_AT_EPOCH":7790,"BSTAR":0.00054205,"MEAN_MOTION_DOT":3.376e-5,"MEAN_MOTION_DDOT":0},{"OBJECT_NAME":"KINEIS-3E","OBJECT_ID":"2024-172C","EPOCH":"2026-03-04T04:25:25.106304","MEAN_MOTION":14.72276587,"ECCENTRICITY":0.0001604,"INCLINATION":98.0298,"RA_OF_ASC_NODE":154.2591,"ARG_OF_PERICENTER":110.2543,"MEAN_ANOMALY":249.8836,"EPHEMERIS_TYPE":0,"CLASSIFICATION_TYPE":"U","NORAD_CAT_ID":61222,"ELEMENT_SET_NO":999,"REV_AT_EPOCH":7790,"BSTAR":0.00053976,"MEAN_MOTION_DOT":3.361e-5,"MEAN_MOTION_DDOT":0},{"OBJECT_NAME":"KINEIS-3A","OBJECT_ID":"2024-172D","EPOCH":"2026-03-03T19:51:39.348000","MEAN_MOTION":14.72301681,"ECCENTRICITY":0.0003142,"INCLINATION":98.0293,"RA_OF_ASC_NODE":153.9956,"ARG_OF_PERICENTER":82.2353,"MEAN_ANOMALY":277.9211,"EPHEMERIS_TYPE":0,"CLASSIFICATION_TYPE":"U","NORAD_CAT_ID":61223,"ELEMENT_SET_NO":999,"REV_AT_EPOCH":7727,"BSTAR":0.00052521,"MEAN_MOTION_DOT":3.271e-5,"MEAN_MOTION_DDOT":0},{"OBJECT_NAME":"KINEIS-3B","OBJECT_ID":"2024-172E","EPOCH":"2026-03-04T03:36:25.812864","MEAN_MOTION":14.72257776,"ECCENTRICITY":0.0003637,"INCLINATION":98.0291,"RA_OF_ASC_NODE":154.3479,"ARG_OF_PERICENTER":74.1663,"MEAN_ANOMALY":285.9945,"EPHEMERIS_TYPE":0,"CLASSIFICATION_TYPE":"U","NORAD_CAT_ID":61224,"ELEMENT_SET_NO":999,"REV_AT_EPOCH":7789,"BSTAR":0.00053573,"MEAN_MOTION_DOT":3.334e-5,"MEAN_MOTION_DDOT":0},{"OBJECT_NAME":"KINEIS-5C","OBJECT_ID":"2024-219A","EPOCH":"2026-03-04T04:40:55.663680","MEAN_MOTION":14.72349679,"ECCENTRICITY":0.0001711,"INCLINATION":97.9724,"RA_OF_ASC_NODE":224.7572,"ARG_OF_PERICENTER":98.0128,"MEAN_ANOMALY":262.1273,"EPHEMERIS_TYPE":0,"CLASSIFICATION_TYPE":"U","NORAD_CAT_ID":62081,"ELEMENT_SET_NO":999,"REV_AT_EPOCH":6830,"BSTAR":0.00023785,"MEAN_MOTION_DOT":1.456e-5,"MEAN_MOTION_DDOT":0},{"OBJECT_NAME":"KINEIS-5D","OBJECT_ID":"2024-219B","EPOCH":"2026-03-04T03:51:56.604384","MEAN_MOTION":14.72325814,"ECCENTRICITY":0.0001153,"INCLINATION":97.9646,"RA_OF_ASC_NODE":224.708,"ARG_OF_PERICENTER":76.2163,"MEAN_ANOMALY":283.9172,"EPHEMERIS_TYPE":0,"CLASSIFICATION_TYPE":"U","NORAD_CAT_ID":62082,"ELEMENT_SET_NO":999,"REV_AT_EPOCH":6830,"BSTAR":0.00029036,"MEAN_MOTION_DOT":1.787e-5,"MEAN_MOTION_DDOT":0}]
